[{"OBJECT_NAME":"STARLINK-32234","OBJECT_ID":"2024-141S","EPOCH":"2026-03-09T17:20:05.190720","MEAN_MOTION":15.30197521,"ECCENTRICITY":0.00011697,"INCLINATION":53.1586,"RA_OF_ASC_NODE":242.5761,"ARG_OF_PERICENTER":74.961,"MEAN_ANOMALY":285.152,"EPHEMERIS_TYPE":0,"CLASSIFICATION_TYPE":"U","NORAD_CAT_ID":60414,"ELEMENT_SET_NO":999,"REV_AT_EPOCH":8958,"BSTAR":-6.4043948e-5,"MEAN_MOTION_DOT":-2.255e-5,"MEAN_MOTION_DDOT":0},{"OBJECT_NAME":"GEOSCAN 3 (RS92S3)","OBJECT_ID":"2025-155T","EPOCH":"2026-03-09T22:52:10.587648","MEAN_MOTION":15.31696739,"ECCENTRICITY":0.00068078,"INCLINATION":97.4455,"RA_OF_ASC_NODE":37.9971,"ARG_OF_PERICENTER":154.1387,"MEAN_ANOMALY":206.0196,"EPHEMERIS_TYPE":0,"CLASSIFICATION_TYPE":"U","NORAD_CAT_ID":64893,"ELEMENT_SET_NO":999,"REV_AT_EPOCH":6564,"BSTAR":0.00078414081,"MEAN_MOTION_DOT":0.00023985,"MEAN_MOTION_DDOT":0}]
